{"type": "FeatureCollection", "features": [ {"type": "Feature", "properties": {"norad_id": 37867, "name": "COSMOS 2476 (744)", "group": "gnss", "lat": -50.788143078310945, "lon": -66.50766629502297, "alt_km": 19073.7583548414, "timestamp": "2025-12-18T14:52:08.267462+00:00", "meta": {"OBJECT_NAME": "COSMOS 2476 (744)", "OBJECT_ID": "2011-064A", "EPOCH": "2025-12-18T07:35:13.446240", "MEAN_MOTION": 2.13103876, "ECCENTRICITY": 0.00242895, "INCLINATION": 65.1659, "RA_OF_ASC_NODE": 78.9826, "ARG_OF_PERICENTER": 234.6288, "MEAN_ANOMALY": 131.1641, "EPHEMERIS_TYPE": 0, "CLASSIFICATION_TYPE": "U", "NORAD_CAT_ID": 37867, "ELEMENT_SET_NO": 999, "REV_AT_EPOCH": 10991, "BSTAR": 0, "MEAN_MOTION_DOT": -4e-07, "MEAN_MOTION_DDOT": 0}, "tle": {"line1": "1 37867U 11064A   25352.31612785 -.00000040  00000+0  00000+0 0  9996", "line2": "2 37867  65.1659  78.9826 0024289 234.6288 131.1641  2.13103876109911"}}, "geometry": {"type": "Point", "coordinates": [-66.50766629502297, -50.788143078310945]}}, {"type": "Feature", "properties": {"norad_id": 37868, "name": "COSMOS 2477 (745)", "group": "gnss", "lat": 51.41575082247486, "lon": 114.4556951627207, "alt_km": 19177.904207189862, "timestamp": "2025-12-18T14:52:08.267475+00:00", "meta": {"OBJECT_NAME": "COSMOS 2477 (745)", "OBJECT_ID": "2011-064B", "EPOCH": "2025-12-17T02:26:26.820384", "MEAN_MOTION": 2.13102893, "ECCENTRICITY": 0.0021195, "INCLINATION": 65.1716, "RA_OF_ASC_NODE": 79.1012, "ARG_OF_PERICENTER": 234.7168, "MEAN_ANOMALY": 100.3174, "EPHEMERIS_TYPE": 0, "CLASSIFICATION_TYPE": "U", "NORAD_CAT_ID": 37868, "ELEMENT_SET_NO": 999, "REV_AT_EPOCH": 10987, "BSTAR": 0, "MEAN_MOTION_DOT": -5e-07, "MEAN_MOTION_DDOT": 0}, "tle": {"line1": "1 37868U 11064B   25351.10169931 -.00000050  00000+0  00000+0 0  9994", "line2": "2 37868  65.1716  79.1012 0021195 234.7168 100.3174  2.13102893109879"}}, "geometry": {"type": "Point", "coordinates": [114.4556951627207, 51.41575082247486]}}, {"type": "Feature", "properties": {"norad_id": 37869, "name": "COSMOS 2475 (743)", "group": "gnss", "lat": 14.139491422662777, "lon": 85.76315550911092, "alt_km": 19168.944609462196, "timestamp": "2025-12-18T14:52:08.267495+00:00", "meta": {"OBJECT_NAME": "COSMOS 2475 (743)", "OBJECT_ID": "2011-064C", "EPOCH": "2025-12-18T05:19:14.657088", "MEAN_MOTION": 2.13101609, "ECCENTRICITY": 0.0026433, "INCLINATION": 65.1789, "RA_OF_ASC_NODE": 79.0834, "ARG_OF_PERICENTER": 248.8457, "MEAN_ANOMALY": 181.3342, "EPHEMERIS_TYPE": 0, "CLASSIFICATION_TYPE": "U", "NORAD_CAT_ID": 37869, "ELEMENT_SET_NO": 999, "REV_AT_EPOCH": 10991, "BSTAR": 0, "MEAN_MOTION_DOT": -4.1e-07, "MEAN_MOTION_DDOT": 0}, "tle": {"line1": "1 37869U 11064C   25352.22169742 -.00000041  00000+0  00000+0 0  9999", "line2": "2 37869  65.1789  79.0834 0026433 248.8457 181.3342  2.13101609109913"}}, "geometry": {"type": "Point", "coordinates": [85.76315550911092, 14.139491422662777]}}, {"type": "Feature", "properties": {"norad_id": 37948, "name": "BEIDOU-2 IGSO-5 (C10)", "group": "gnss", "lat": 35.43681641331768, "lon": 54.01033054247299, "alt_km": 35799.812652680186, "timestamp": "2025-12-18T14:52:08.267511+00:00", "meta": {"OBJECT_NAME": "BEIDOU-2 IGSO-5 (C10)", "OBJECT_ID": "2011-073A", "EPOCH": "2025-12-17T16:24:35.912736", "MEAN_MOTION": 1.00290385, "ECCENTRICITY": 0.01100136, "INCLINATION": 48.0109, "RA_OF_ASC_NODE": 273.7976, "ARG_OF_PERICENTER": 222.3587, "MEAN_ANOMALY": 289.8191, "EPHEMERIS_TYPE": 0, "CLASSIFICATION_TYPE": "U", "NORAD_CAT_ID": 37948, "ELEMENT_SET_NO": 999, "REV_AT_EPOCH": 5131, "BSTAR": 0, "MEAN_MOTION_DOT": -1.81e-06, "MEAN_MOTION_DDOT": 0}, "tle": {"line1": "1 37948U 11073A   25351.68374899 -.00000181  00000+0  00000+0 0  9992", "line2": "2 37948  48.0109 273.7976 0110013 222.3587 289.8191  1.00290385 51317"}}, "geometry": {"type": "Point", "coordinates": [54.01033054247299, 35.43681641331768]}}, {"type": "Feature", "properties": {"norad_id": 37951, "name": "LUCH 5A (SDCM/PRN 140)", "group": "gnss", "lat": 5.46249561597978, "lon": 117.26692065268918, "alt_km": 35804.42190278705, "timestamp": "2025-12-18T14:52:08.267524+00:00", "meta": {"OBJECT_NAME": "LUCH 5A (SDCM/PRN 140)", "OBJECT_ID": "2011-074B", "EPOCH": "2025-12-18T07:09:27.567936", "MEAN_MOTION": 1.00269006, "ECCENTRICITY": 0.00050961, "INCLINATION": 8.2933, "RA_OF_ASC_NODE": 76.5016, "ARG_OF_PERICENTER": 188.7916, "MEAN_ANOMALY": 96.3233, "EPHEMERIS_TYPE": 0, "CLASSIFICATION_TYPE": "U", "NORAD_CAT_ID": 37951, "ELEMENT_SET_NO": 999, "REV_AT_EPOCH": 5123, "BSTAR": 0, "MEAN_MOTION_DOT": -3.1e-07, "MEAN_MOTION_DDOT": 0}, "tle": {"line1": "1 37951U 11074B   25352.29823574 -.00000031  00000+0  00000+0 0  9998", "line2": "2 37951   8.2933  76.5016 0005096 188.7916  96.3233  1.00269006 51238"}}, "geometry": {"type": "Point", "coordinates": [117.26692065268918, 5.46249561597978]}}, {"type": "Feature", "properties": {"norad_id": 38091, "name": "BEIDOU-2 G5 (C05)", "group": "gnss", "lat": -2.73088233471281, "lon": 9.474197690272437, "alt_km": 35766.79089169604, "timestamp": "2025-12-18T14:52:08.267535+00:00", "meta": {"OBJECT_NAME": "BEIDOU-2 G5 (C05)", "OBJECT_ID": "2012-008A", "EPOCH": "2025-12-18T01:35:25.082592", "MEAN_MOTION": 1.00268084, "ECCENTRICITY": 0.00129788, "INCLINATION": 3.1222, "RA_OF_ASC_NODE": 70.6932, "ARG_OF_PERICENTER": 231.0982, "MEAN_ANOMALY": 227.7978, "EPHEMERIS_TYPE": 0, "CLASSIFICATION_TYPE": "U", "NORAD_CAT_ID": 38091, "ELEMENT_SET_NO": 999, "REV_AT_EPOCH": 5055, "BSTAR": 0, "MEAN_MOTION_DOT": 7.9e-07, "MEAN_MOTION_DDOT": 0}, "tle": {"line1": "1 38091U 12008A   25352.06626253  .00000079  00000+0  00000+0 0  9993", "line2": "2 38091   3.1222  70.6932 0012978 231.0982 227.7978  1.00268084 50558"}}, "geometry": {"type": "Point", "coordinates": [9.474197690272437, -2.73088233471281]}}, {"type": "Feature", "properties": {"norad_id": 38250, "name": "BEIDOU-2 M3 (C11)", "group": "gnss", "lat": -54.20084273054224, "lon": -159.31776674075397, "alt_km": 21469.00638001717, "timestamp": "2025-12-18T14:52:08.267547+00:00", "meta": {"OBJECT_NAME": "BEIDOU-2 M3 (C11)", "OBJECT_ID": "2012-018A", "EPOCH": "2025-12-17T03:50:10.506912", "MEAN_MOTION": 1.86229968, "ECCENTRICITY": 0.00242614, "INCLINATION": 55.9161, "RA_OF_ASC_NODE": 311.0085, "ARG_OF_PERICENTER": 274.7282, "MEAN_ANOMALY": 84.9799, "EPHEMERIS_TYPE": 0, "CLASSIFICATION_TYPE": "U", "NORAD_CAT_ID": 38250, "ELEMENT_SET_NO": 999, "REV_AT_EPOCH": 9255, "BSTAR": 0, "MEAN_MOTION_DOT": -9.2e-07, "MEAN_MOTION_DDOT": 0}, "tle": {"line1": "1 38250U 12018A   25351.15984383 -.00000092  00000+0  00000+0 0  9997", "line2": "2 38250  55.9161 311.0085 0024261 274.7282  84.9799  1.86229968 92550"}}, "geometry": {"type": "Point", "coordinates": [-159.31776674075397, -54.20084273054224]}}, {"type": "Feature", "properties": {"norad_id": 38251, "name": "BEIDOU-2 M4 (C12)", "group": "gnss", "lat": -43.235298187900995, "lon": -89.5167179662115, "alt_km": 21494.341899341754, "timestamp": "2025-12-18T14:52:08.267559+00:00", "meta": {"OBJECT_NAME": "BEIDOU-2 M4 (C12)", "OBJECT_ID": "2012-018B", "EPOCH": "2025-12-18T03:58:46.977600", "MEAN_MOTION": 1.86229645, "ECCENTRICITY": 0.00154499, "INCLINATION": 55.8165, "RA_OF_ASC_NODE": 310.203, "ARG_OF_PERICENTER": 278.2427, "MEAN_ANOMALY": 81.5679, "EPHEMERIS_TYPE": 0, "CLASSIFICATION_TYPE": "U", "NORAD_CAT_ID": 38251, "ELEMENT_SET_NO": 999, "REV_AT_EPOCH": 9257, "BSTAR": 0, "MEAN_MOTION_DOT": -8.6e-07, "MEAN_MOTION_DDOT": 0}, "tle": {"line1": "1 38251U 12018B   25352.16582150 -.00000086  00000+0  00000+0 0  9999", "line2": "2 38251  55.8165 310.2030 0015449 278.2427  81.5679  1.86229645 92577"}}, "geometry": {"type": "Point", "coordinates": [-89.5167179662115, -43.235298187900995]}}, {"type": "Feature", "properties": {"norad_id": 38652, "name": "SES-5 (EGNOS/PRN 136)", "group": "gnss", "lat": -0.002228848089570486, "lon": -44.50662017559954, "alt_km": 35781.855412644545, "timestamp": "2025-12-18T14:52:08.267571+00:00", "meta": {"OBJECT_NAME": "SES-5 (EGNOS/PRN 136)", "OBJECT_ID": "2012-036A", "EPOCH": "2025-12-18T04:46:38.871264", "MEAN_MOTION": 1.00270078, "ECCENTRICITY": 0.00018232, "INCLINATION": 0.0561, "RA_OF_ASC_NODE": 307.0471, "ARG_OF_PERICENTER": 315.6922, "MEAN_ANOMALY": 260.9647, "EPHEMERIS_TYPE": 0, "CLASSIFICATION_TYPE": "U", "NORAD_CAT_ID": 38652, "ELEMENT_SET_NO": 999, "REV_AT_EPOCH": 4264, "BSTAR": 0, "MEAN_MOTION_DOT": 5.9e-07, "MEAN_MOTION_DDOT": 0}, "tle": {"line1": "1 38652U 12036A   25352.19906101  .00000059  00000+0  00000+0 0  9992", "line2": "2 38652   0.0561 307.0471 0001823 315.6922 260.9647  1.00270078 42647"}}, "geometry": {"type": "Point", "coordinates": [-44.50662017559954, -0.002228848089570486]}}, {"type": "Feature", "properties": {"norad_id": 38775, "name": "BEIDOU-2 M6 (C14)", "group": "gnss", "lat": 33.80405969970727, "lon": -137.51876615998415, "alt_km": 21552.584709860057, "timestamp": "2025-12-18T14:52:08.267582+00:00", "meta": {"OBJECT_NAME": "BEIDOU-2 M6 (C14)", "OBJECT_ID": "2012-050B", "EPOCH": "2025-12-16T19:16:00.374304", "MEAN_MOTION": 1.86230897, "ECCENTRICITY": 0.00113573, "INCLINATION": 56.3818, "RA_OF_ASC_NODE": 68.9326, "ARG_OF_PERICENTER": 343.3915, "MEAN_ANOMALY": 16.5942, "EPHEMERIS_TYPE": 0, "CLASSIFICATION_TYPE": "U", "NORAD_CAT_ID": 38775, "ELEMENT_SET_NO": 999, "REV_AT_EPOCH": 8991, "BSTAR": 0, "MEAN_MOTION_DOT": -7.7e-07, "MEAN_MOTION_DDOT": 0}, "tle": {"line1": "1 38775U 12050B   25350.80278211 -.00000077  00000+0  00000+0 0  9995", "line2": "2 38775  56.3818  68.9326 0011357 343.3915  16.5942  1.86230897 89910"}}, "geometry": {"type": "Point", "coordinates": [-137.51876615998415, 33.80405969970727]}}]}